#dP2025  1 27  6  0  0.00000000      96 __u+U IGS20 EXT  IAC
## 2351 108000.00000000   900.00000000 60702 0.2500000000000
+   53   G01G02G03G04G05G06G07G08G09G10G11G12G13G14G15G16G17
+        G18G19G20G21G22G23G24G25G26G27G28G29G30G31G32R01R02
+        R03R04R05R06R07R08R09R11R12R14R15R16R17R18R19R20R21
+        R22R24  0  0  0  0  0  0  0  0  0  0  0  0  0  0  0
+          0  0  0  0  0  0  0  0  0  0  0  0  0  0  0  0  0
++         9  7  7  8  7  7  9  7  7  7  7  7  7  7  7  7  7
++         7  7  8  7  7  7  7  7  7  7  7  7  7  8  7 10  9
++         9  8  8 12  8  8  7  9  9  8  8  9  8  9  8  8  8
++         8  8  0  0  0  0  0  0  0  0  0  0  0  0  0  0  0
++         0  0  0  0  0  0  0  0  0  0  0  0  0  0  0  0  0
%c M  cc GPS ccc cccc cccc cccc cccc ccccc ccccc ccccc ccccc
%c cc cc ccc ccc cccc cccc cccc cccc ccccc ccccc ccccc ccccc
%f  0.0000000  0.000000000  0.00000000000  0.000000000000000
%f  0.0000000  0.000000000  0.00000000000  0.000000000000000
%i    0    0    0    0      0      0      0      0         0
%i    0    0    0    0      0      0      0      0         0
/* IAC                                ULTRA-RAPID PREDICTION
/* S/V CLOCKS ARE ALIGNED TO GNSS TIME                      
/* G:C1WC2W R:C1PC2P E:C1XC5X C:C2IC6I J:C1CC2S             
/* PCV:IGS20_2350 OL/AL:FES2004  NONE     YN ORB:CoN CLK:CoN
*  2025 01 27 11 30  0.00000000
PG01 -19650.370571 -11856.933976  13383.874692     80.235439
PG02 -21751.336716 -11589.076642  10873.632104   -257.738547
PG03 -14679.995002  -2015.868275  21866.832299    653.620698
PG04 -25844.816191  -1149.967154   6384.307466    518.292406
PG05   8321.934536  16544.878524 -19188.027855   -200.231356
PG06   1250.511524  20042.191711  17389.095344   -147.324888
PG07 -16409.766504   2802.069043 -20250.290358    -13.390114
PG08 -20242.936894  -7490.639289 -15910.703295    469.127552
PG09 -25590.844165   6772.651346  -2683.950331    544.779342
PG10  10117.975143 -24320.405498  -1139.610683   -294.139635
PG11  10683.687461  23143.251851   7607.322361   -750.262763
PG12  14039.453377   5559.714606  21559.470191   -566.844257
PG13  11814.977243  13377.159362 -19981.923775    694.736546
PG14 -12842.635782  22580.526200  -4828.363162    587.722805
PG15  21058.759815   5276.208324 -15917.558245    256.515027
PG16  -2791.777265 -20753.091557 -16426.258134    -67.631651
PG17 -16852.645523  13102.961749  16340.353639    454.760015
PG18  14585.276094  -5174.877703 -21582.269250   -656.159274
PG19  -6154.849888  14873.749420  20905.888751    591.107752
PG20   2055.891695  24865.136658  -9201.604391    366.755412
PG21 -20974.567047 -16786.764946   4428.982967    101.676323
PG22  -9205.656419  24878.708197   3656.880000    -94.347874
PG23  15676.464599 -15597.581324 -14490.512274    412.011594
PG24  21603.177990  13577.429401   7600.222210   -459.309643
PG25  16869.876843  -8707.931048  18104.056591    496.068188
PG26   2294.975643 -25536.777971  -6290.229940    -65.426640
PG27  -9218.593947 -13558.719385 -21285.560664    -32.458903
PG28      2.167570 -19335.124666  18197.962262   -545.633136
PG29  26137.167822  -4249.362021  -2847.527544   -543.332822
PG30  -7736.228966  14535.955861 -20639.813637   -229.828903
PG31  -7143.709103 -22476.928828  11600.626381   -216.926912
PG32  11187.012664 -15207.962705  18835.040818   -533.687013
PR01 -22518.647268  11001.557634   4723.779262    112.669205
PR02 -16302.467688  15393.864391 -12179.944406    -38.060038
PR03    157.742255  11950.609478 -22491.959183    115.717750
PR04  15569.734814   1980.727946 -20068.201916    274.442714
PR05  22880.846977  -8844.661946  -6930.807504    144.452660
PR06 -14325.215872  -3034.935167  20904.511998   -131.376776
PR07   -586.336609 -11783.788856  22653.767582     99.654746
PR08 -15874.343455  -1752.101746  19967.942080     -6.305122
PR09   5167.424331 -22177.727081  11593.934627    234.506353
PR11  -8801.677310 -15227.040493 -18477.913729     -4.047590
PR12 -10746.607999   6046.327180 -22315.199428     50.095451
PR14   2724.247604  24788.853392   5320.529971     27.669070
PR15   9339.656187  13541.436090  19503.578697     71.778500
PR16  10608.667091  -5932.228641  22432.093107     32.806509
PR17  12167.591592  15805.973634  15933.409227    161.101943
PR18  21477.557513  13683.555165    849.753256    184.031768
PR19  20736.512041   6542.821885 -13331.122960   -306.995629
PR20   5935.633987  -8569.644824 -23267.673641   -125.057382
PR21 -10889.317836 -15672.358197 -16909.657533   -171.681850
PR22 -21579.930279 -13606.894760    541.588651    -57.919754
PR24  -5322.209832   9546.079758  23068.127906    -89.906359
*  2025 01 27 11 45  0.00000000
PG01 -20313.024596 -13103.594380  11024.044412     80.260183
PG02 -22367.849194 -12429.359892   8314.051656   -257.730148
PG03 -13858.493688  -4422.479400  22056.497296    653.626720
PG04 -25012.458621  -1496.775563   9059.465589    518.297578
PG05   7634.646124  18502.795270 -17600.235360   -200.232335
PG06   -163.282758  18526.518929  19052.844162   -147.348249
PG07 -17890.455811    964.030892 -19207.491909    -13.390251
PG08 -18444.158256  -8076.587720 -17684.268006    469.134107
PG09 -25776.210505   6559.139472    163.561633    544.792371
PG10  10205.169739 -23946.242523  -4047.267355   -294.153700
PG11   9884.053047  22485.384165  10220.245943   -750.261334
PG12  13054.861715   7883.755886  21458.543351   -566.846190
PG13   9530.775329  13560.525008 -21041.123787    694.737496
PG14 -12887.519871  21798.034144  -7542.959619    587.729094
PG15  19399.920808   6083.212202 -17685.423028    256.519047
PG16  -1914.492348 -22248.398787 -14386.566177    -67.623250
PG17 -18537.214279  13180.494748  14291.006377    454.743693
PG18  16115.179720  -3288.813654 -20872.892330   -656.157700
PG19  -8528.357269  14988.149598  19936.352664    591.111761
PG20   1683.434204  25729.536456  -6555.720637    366.755157
PG21 -21077.580124 -17111.058612   1665.892431    101.676760
PG22  -9505.490780  24979.122131    837.399767    -94.349487
PG23  15287.983574 -13845.588259 -16553.611673    412.018261
PG24  21963.985307  14315.213957   4944.290304   -459.305661
PG25  16343.963361  -6535.795040  19449.032789    496.067601
PG26   2779.217776 -25985.647330  -3553.159585    -65.440989
PG27  -6880.411412 -14073.965527 -21797.682845    -32.458402
PG28   1568.913619 -17835.490407  19606.621745   -545.641340
PG29  26319.573248  -4045.025989      9.416511   -543.329616
PG30  -9398.503490  12755.046736 -21142.076958   -229.821195
PG31  -5983.388274 -21479.629161  13904.310695   -216.926153
PG32  13199.423654 -15479.673290  17202.883883   -533.680344
PR01 -21789.988704  10703.174649   7817.655807    112.670380
PR02 -17367.919393  16211.622611  -9329.569509    -38.059634
PR03  -2148.498158  13412.351584 -21553.449129    115.718435
PR04  13314.754906   3224.113371 -21479.315679    274.444455
PR05  21893.491176  -8462.612468  -9939.761109    144.453267
PR06 -12036.398144  -4368.909816  22081.246936   -131.376391
PR07   1726.586331 -13238.940845  21768.586809     99.655368
PR08 -13662.900472  -3000.062644  21404.680791     -6.304928
PR09   5183.021467 -20589.796186  14214.734387    234.508243
PR11  -8968.892393 -17374.218205 -16387.081373     -4.050385
PR12 -10804.009373   3256.190047 -22860.822615     50.095850
PR14   2854.076293  25245.697230   2165.849585     27.669186
PR15   9478.920905  15826.622271  17623.924918     71.778181
PR16  10669.982604  -3132.453526  22959.621669     32.806883
PR17  10393.592313  14676.280836  18118.444447    161.104860
PR18  21313.057075  13362.715138   4072.197301    184.033549
PR19  22091.522547   7158.065912 -10548.984593   -306.996768
PR20   8379.996196  -7078.087758 -23012.294231   -125.057820
PR21  -9021.659686 -14471.235606 -18957.088071   -171.684720
PR22 -21539.505333 -13412.449662  -2664.973901    -57.921329
PR24  -7805.893058   8188.951643  22881.214242    -89.907769
EOF
